ServicesCentreID,Title,Address1,Address2,City,ProvinceID,PostalCode,Lat,Lon,StoreFront,EnglishService,FrenchService,Phone,Fax,Email,Website,OpeningHours,CatchmentAreaID,ServicesCentreContractorID,LegacyURL
3,Port Hardy,129-8950 Granville Street,,Port Hardy,2,V0N 2P0,50.720686,-127.496874,1,1,0,250-949-5736,250-949-5797,phinfo@niefs.net,http://www.niefs.net/,"8:30am-4:30pm Monday to Friday, ﻿﻿Excluding Statutory Holidays",63,1,https://workbc.ca/WorkBC-Centres/Cariboo/Quesnel.aspx
4,Powell River,103-4511 Marine Avenue,,Powell River,2,V8A 2K5,49.837969,-124.527884,1,1,0,604-485-7958,604-485-7997,yourteam@careerlinkbc.com,http://www.careerlinkbc.com/,"8:30 am to 4:30 pm, Monday to Friday, Excluding Statutory Holidays",65,2,https://workbc.ca/WorkBC-Centres/Cariboo/Quesnel.aspx
5,Campbell River,870C 13th Avenue,,Campbell River,2,V9W 4H2,50.028062,-125.253603,1,1,0,250-286-3441,250-286-3447,info@neifs.net,http://www.niefs.net/,"8:30 am to 4:30 pm, Monday to Friday, Excluding Statutory Holidays",11,1,https://workbc.ca/WorkBC-Centres/Cariboo/Quesnel.aspx
6,Nanaimo,255-2000 Island Highway,,Nanaimo,2,V9S 5W3,49.192909,-123.973267,1,1,1,250-729-5627,250-756-8899,nanaimo@gthiringsolutions.ca,http://www.gthiringsolutions.ca/,"8:30 am to 5:00 pm, Monday to Wednesday 8:30 am to 3:00 pm, Thursday 8:30 am to 4:30 pm, Friday Excluding Statutory Holidays",50,6,https://workbc.ca/WorkBC-Centres/Cariboo/Quesnel.aspx
8,Nanaimo,101-155 Skinner Street,,Nanaimo,2,V9R 5E8,49.192917,-123.973295,2,1,0,250-714-0085,250-714-0093,info@slbconsulting.com,http://www.set-nanaimo.com/,"8:30 am to 5:00 pm, Monday to Wednesday 8:30 am to 3:00 pm, Thursday 8:30 am to 4:30 pm, Friday Excluding Statutory Holidays",50,7,https://workbc.ca/WorkBC-Centres/Cariboo/Quesnel.aspx
9,Duncan,301-80 Station Street,,Duncan,2,V9L 1M4,48.77746,-123.708179,1,1,0,250-758-9880,250-746-8986,info@gvsjobs.com,http://www.gvsjobs.com/,"8:30 am to 4:30 pm, Monday to Friday, Excluding Statutory Holidays",23,8,https://workbc.ca/WorkBC-Centres/Cariboo/Quesnel.aspx
10,Duncan,11-740 1st Avenue,,Ladysmith,2,V9B 1X1,48.780896,-123.710239,2,1,0,250-924-2884,250-746-8986,info@gvsjobs.com,http://www.gvsjobs.com/,"8:30 am to 4:30 pm, Monday to Friday, Excluding Statutory Holidays",24,8,https://workbc.ca/WorkBC-Centres/Cariboo/Quesnel.aspx
11,Victoria,201-1483 Douglas Street,,Victoria,2,V8W 3K4,48.427691,-123.364255,1,1,1,250-250-2501,250-250-2501,victoria@gthiringsolutions.ca,http://www.gthiringsolutions.ca/,"8:30 am to 4:30 pm, Monday to Friday, Excluding Statutory Holidays",100,6,https://workbc.ca/WorkBC-Centres/Cariboo/Quesnel.aspx
12,Victoria,102-415 Gorge Road E,,Victoria,2,V8T 2W1,48.427725,-123.364257,2,1,1,150-250-2502,250-250-2503,victoria@gthiringsolutions.ca,http://www.gthiringsolutions.ca/,"8:30 am to 5:00 pm, Monday to Wednesday 8:30 am to 3:00 pm, Thursday 8:30 am to 4:30 pm, Friday Excluding Statutory Holidays",100,6,https://workbc.ca/WorkBC-Centres/Cariboo/Quesnel.aspx
13,Vancouver South,5750 Oak Street,,Vancouver,2,V6M 2v9,49.233811,-123.127856,1,1,1,604-604-6041,604-604-6042,erc@ywcavan.org,http://www.ywcajobseeker.org/,"8:30 am to 4:30 pm, Monday to Friday, Excluding Statutory Holidays",96,13,https://workbc.ca/WorkBC-Centres/Cariboo/Quesnel.aspx
14,Vancouver Midtown,110 East 3rd Avenue,,Vancouver,2,V5T 1C8,49.233819,-123.12786,1,1,1,604-604-6043,604-604-6044,info@vancouvermidtownesc.ca,http://www.pcrs.ca/,"Mon-Fri 8am-6pm
Sat-Sun 11am-3pm",94,14,https://workbc.ca/WorkBC-Centres/Cariboo/Quesnel.aspx
15,Vancouver Westside,300/301 2150 West Broadway,,Vancouver,2,V6K 4L9,49.263128,-123.111033,1,1,1,604-604-6045,604-604-6046,TBD,http://www.ywcajobseeker.org/,"8:30 am to 4:30 pm, Monday to Friday, Excluding Statutory Holidays",97,13,https://workbc.ca/WorkBC-Centres/Cariboo/Quesnel.aspx
16,Ucluelet,Unit 10 - 1636 Peninsula Road,,Ucluelet,2,V0R 3A0,48.942826,-125.549161,2,1,0,250-726-4243,250-726-2975,wcinfo@avemployment.ca,http://www.avemployment.ca/,"9:00 am to 12 & 1:00 pm to 4:00 pm
Wednesday & Friday (closed from 12-1)",90,4,https://workbc.ca/WorkBC-Centres/Cariboo/Quesnel.aspx
17,Courtenay,555 4th Street,,Courtenay,2,V9N 1H3,49.690285,-125.003641,1,1,0,250-334-3119,250-338-7594,contact@ceas.ca,http://www.ceas.ca/,"8:30 am to 4:30 pm, Monday through Friday",18,3,https://workbc.ca/WorkBC-Centres/Cariboo/Quesnel.aspx
18,Port Alberni,4805-B Mar Street,,Port Alberni,2,V9Y 8J5,49.232171,-124.805417,1,1,0,250- 724-4560,250 724-4565,info@avemployment.ca,http://www.avemployment.ca/,"8:30 am to 4:30 pm, Monday to Friday, Excluding Statutory Holidays",61,4,https://workbc.ca/WorkBC-Centres/Cariboo/Quesnel.aspx
19,Tofino,381 Main Street,,Tofino,2,V0R 2Z0,49.153183,-125.906817,3,1,0,250-725-8805,250-725-2845,wcinfo@avemployment.ca,http://www.avemployment.ca/,"9:00 am to 12 & 1:00 pm to 4:00 pmMonday, Tuesday & Thursday (closed from 12-1)",88,4,https://workbc.ca/WorkBC-Centres/Cariboo/Quesnel.aspx
20,Parksville,110 - 198 East Island Highway,,Parksville,2,V9P 2H3,49.320016,-124.30872,1,1,0,250-248-3205,250-248-4154,info@careercentre.org,http://www.careercentre.org/,"8:30 am to 4:30 pm, Monday to FridayClosed on Statutory Holidays",58,5,https://workbc.ca/WorkBC-Centres/Cariboo/Quesnel.aspx
21,Langford,2234 Sooke Road,,Victoria,2,V9B 1X1,48.434731,-123.491953,1,1,0,250-478-9525,250-478-8664,mailbox@worklink.bc.ca,http://www.worklink.bc.ca/,"9:00-4:30 Monday through Friday, Excluding Statutory Holidays",41,9,https://workbc.ca/WorkBC-Centres/Cariboo/Quesnel.aspx
22,Sooke,6625-D Sooke Road,,Sooke,2,V9Z 0A2,48.378545,-123.719243,2,1,0,250-642-3685,250-642-3601,mailbox@worklink.bc.ca,http://www.worklink.bc.ca/,"9:00-12:00 & 1:00-3:30, Tuesday, Wednesday, Thursday",79,9,https://workbc.ca/WorkBC-Centres/Cariboo/Quesnel.aspx
23,Saanich,201-3962 Borden Street,,Victoria,2,V8P 3H8,48.470227,-123.361131,1,1,0,250-479-9675,250-479-9678,Saanich@gthiringsolutions.ca,http://www.gthiringsolutions.ca/,"8:30 am to 5:00 pm, Monday to Wednesday 8:30 am to 3:00 pm, Thursday 8:30 am to 4:30 pm, Friday Excluding Statutory Holidays",73,6,https://workbc.ca/WorkBC-Centres/Cariboo/Quesnel.aspx
24,Sidney,9860 Third Street,,Sidney,2,V8L 4R2,48.650574,-123.397979,1,1,0,250-656-0134,250-655-5081,workbcinfo@beaconcs.ca,http://www.beaconcs.ca/,"8:30 am to 5:00 pm, Monday to Friday, Excluding Statutory Holidays",77,10,https://workbc.ca/WorkBC-Centres/Cariboo/Quesnel.aspx
25,Salt Spring Island,268 Fulford-Ganges Road,,Salt Spring Island,2,V8K 2K6,48.847462,-123.499826,2,1,0,250-931-7687,250-931-7685,workbcinfo@beaconcs.ca,http://www.beaconcs.ca/,"11:00 am to 3:00 pm Monday to Thursday, Closed for lunch from 12:00 - 1:00",75,10,https://workbc.ca/WorkBC-Centres/Cariboo/Quesnel.aspx
26,Delta,3rd Floor 11861 88 Avenue,,Delta,2,V4C 3C6,49.16333,-122.894382,1,1,0,604 591-9116,604 591-8971,info@escdelta.ca,http://www.bgccs.bc.ca/,"9:00 am to 5:00 pm, Monday to FridayExcluding Statuary Holidays",22,11,https://workbc.ca/WorkBC-Centres/Cariboo/Quesnel.aspx
27,Ladner,4899 Delta Street,,Ladner,2,V4K 2T9,49.091957,-123.08704,2,1,0,604 591-9116,604 591-8971,info@escdelta.ca,http://www.bgccs.bc.ca/,"9:00 am to 5:00 pm, Monday to Friday(Resource Room 9:00 am to 4:30 pm)Closed from 12 noon to 1 pm for lunchExcluding Statuary Holidays",40,11,https://workbc.ca/WorkBC-Centres/Cariboo/Quesnel.aspx
28,Richmond,#290 – 3631 No 3 Road,,Richmond,2,V6X 2B9,49.187775,-123.134254,1,1,0,778-732-0285,778-732-0281,aviarichmond@aviaemployment.ca,http://www.letsgetbctowork.ca/,8:00 am to 5:00 pm,71,12,https://workbc.ca/WorkBC-Centres/Cariboo/Quesnel.aspx
29,Vancouver Northeast,312–2555 Commercial Drive,,Vancouver,2,V5N 4C1,49.261584,-123.070027,1,1,1,604-708-9300,604-708-9314,mosaic@mosaicbc.com,http://www.mosaicbc.com/,"8:30 am to 5:00 PM, Monday & Tuesday
8:30 am to 3:00 pm, Wednesday
8:30 am to 5:00 PM, Thursday & Friday",95,15,https://workbc.ca/WorkBC-Centres/Cariboo/Quesnel.aspx
30,Vancouver Downtown Eastside,112 West Hastings Street,,Vancouver,2,V6K 2C8,49.282054,-123.107526,1,1,1,604-872-0770,604-873-1758,info@opendoorgroup.org,http://www.opendoorgroup.org/,"8:00 am to 4:30 pm, Monday to Friday",93,16,https://workbc.ca/WorkBC-Centres/Cariboo/Quesnel.aspx
31,Vancouver City Centre,1033 Davie Street,,Vancouver,2,V6E 1M7,49.279856,-123.129971,1,1,1,604-434-0367,604-694-1077,citycentre-esc@fsgv.ca,http://www.fsgv.ca/,"9:00 am to 5:30 pm, Monday to Thursday
9:00 am to 3:00 pm, Friday",92,17,https://workbc.ca/WorkBC-Centres/Cariboo/Quesnel.aspx
32,North Vancouver,310-260 West Esplanade,,North Vancouver,2,V7M 3G7,49.313619,-123.084648,1,1,0,604-988-3766,604-988-7153,escnorthshore@ywcavan.org,http://www.ywcajobseeker.org/,"8:30 am to 5:00 pm, Monday, Tuesday
&Thursday
10:00 am to 5:00 pm, Wednesday
8:30 am to 4:00 pm, Friday",55,13,https://workbc.ca/WorkBC-Centres/Cariboo/Quesnel.aspx
33,Sechelt,5600 Sunshine Coast Hwy,,Sechelt,2,V0N 3A0,49.474208,-123.752591,1,1,0,604-885-3351,604-885-3361,info@opendoorgroup.org,http://www.opendoorgroup.org/,"8:30 am to 4:30 pm, Monday to Friday",76,16,https://workbc.ca/WorkBC-Centres/Cariboo/Quesnel.aspx
34,Squamish,302 - 37989 Cleveland Avenue,,Squamish,2,V8B 0C3,49.698204,-123.153718,1,1,0,604-815-4550,604-815-4510,info@squamishesc.com,http://www.squamishesc.com/,"8:30 am to 5:00 pm, Monday to Friday
8:30 am to 8:00 pm, Thursdays",81,18,https://workbc.ca/WorkBC-Centres/Cariboo/Quesnel.aspx
35,Whistler,#204 – 1200 Alpha Lake Road,,Whistler,2,V0N 1B1,50.088772,-123.039092,1,1,0,604-932-1600,604-932-1670,nfo@whistleresc.com,http://www.whistleresc.com/,"9:30 am to 6:00 pm, Monday to Friday
9:30 am to 8:00 pm, Wednesdays",101,18,https://workbc.ca/WorkBC-Centres/Cariboo/Quesnel.aspx
36,Maple Ridge,#170 - 22470 Dewdney Trunk Road,,Maple Ridge,2,V2X 5Z6,49.220468,-122.599257,1,1,0,604 466-4600,604-466-4620,info@workbcmapleridge.ca,http://www.workbcmapleridge.ca/,8:30 am to 5:00 pm,45,19,https://workbc.ca/WorkBC-Centres/Cariboo/Quesnel.aspx
37,Lillooet,639B Main Street,,Lillooet,2,V0K 1V0,50.693165,-121.934505,1,1,0,250-256-7758,250-256-7768,info@opendoorgroup.org,http://www.opendoorgroup.org/,"8:30 am to 4:30 pm, Monday to Friday",43,16,https://workbc.ca/WorkBC-Centres/Cariboo/Quesnel.aspx
38,Abbotsford,103 - 33255 South Fraser Way,,Abbotsford,2,V2S 2B2,49.050447,-122.30349,1,1,1,604-859-4500,604-855-5195,storefront@abbotsfordworks.com,http://www.abbotsfordworks.com/,8:30 am to 4:30 pm,2,20,https://workbc.ca/WorkBC-Centres/Cariboo/Quesnel.aspx
39,Mission,209-33123 1st Avenue,,Mission,2,V2V 1G5,49.13435,-122.306536,1,1,0,604-826-0626,604-826-0697,manager@missioncsc.org,http://www.FVESSC.com/,8:30 AM – 4:30 Monday to Friday,48,21,https://workbc.ca/WorkBC-Centres/Cariboo/Quesnel.aspx
40,Agassiz,7086 Pioneer Avenue,,Agassiz,2,V0M 1A1,49.23885,-121.763701,1,1,0,604-796-0266,604-796-0267,intake@workbcagassiz.com,http://www.FVESSC.com/,"9:00 am to 5:00 pm, Monday to Wednesday
and Friday
9:00 am to 7:00 pm, Thursday
9:30 am, to 1:30 pm, Saturday",3,21,https://workbc.ca/WorkBC-Centres/Cariboo/Quesnel.aspx
41,Chilliwack,46151 Yale Road,,Chilliwack,2,V2P 2P2,49.171347,-121.951891,1,1,1,604 795-9675,604 795-9648,chilliwack@gthiringsolutions.ca,http://www.gthiringsolutions.ca/,"8:30 am to 5:00 pm, Monday to Wednesday
8:30 am to 3:00 pm, Thursday
8:30 am to 4:30 pm, Friday
Excluding Statutory Holidays",14,6,https://workbc.ca/WorkBC-Centres/Cariboo/Quesnel.aspx
42,Chilliwack,101 - 5658 Vedder Road,,Chilliwack,2,V2R 3M9,49.105341,-121.961216,2,1,0,604 858-5472,604 858-5478,chilliwack@gthiringsolutions.ca,http://www.gthiringsolutions.ca/,"8:15 am to 4:30 pm, Monday to Wednesday &
Friday
8:15 am to 3:45 pm, Thursday
Excluding Statutory Holidays",13,22,https://workbc.ca/WorkBC-Centres/Cariboo/Quesnel.aspx
43,Hope,895 Third Avenue,,Hope,2,V0X 1L4,49.378047,-121.440421,1,1,0,604 869-2279,604 869-8208,info@freereinassociates.ca,http://www.FVESSC.com/,"8:00 am – 5:00 pm, Monday to Thursday
8:00 am – 2:00 pm, Friday",33,21,https://workbc.ca/WorkBC-Centres/Cariboo/Quesnel.aspx
44,Langley,#101 & 102 – 20316 56th Avenue,,Langley,2,V3A 3Y7,49.104621,-122.690149,1,1,0,778 726-0288,778 726-0291,avialangley@aviaemployment.ca,http://www.letsgetbctowork.ca/,8:00 am to 5:00 pm,42,12,https://workbc.ca/WorkBC-Centres/Cariboo/Quesnel.aspx
45,Coquitlam,#202 - 405 North Road,,Coquitlam,2,V3K 3V9,49.246247,-122.892601,1,1,0,604 424-9510,778 730-0165,aviacoquitlam@aviaemployment.ca,http://www.letsgetbctowork.ca/,8:00 am to 5:00 pm,17,12,https://workbc.ca/WorkBC-Centres/Cariboo/Quesnel.aspx
46,Coquitlam,#221 - 3030 Lincoln Avenue,,Coquitlam,2,V3B 6B4,49.279006,-122.790532,2,1,0,778 730-0174,778 374-0369,aviacoquitlam@aviaemployment.ca,http://www.letsgetbctowork.ca/,8:00 am to 5:00 pm,16,12,https://workbc.ca/WorkBC-Centres/Cariboo/Quesnel.aspx
47,Port Coquitlam,#206/208 - 2540 Shaughnessy St.,,Port Coquitlam,2,V3C 3G2,49.261568,-122.782077,1,1,0,778 730-0171,778 730-0168,aviaportcoquitlam@aviaemployment.ca,http://www.letsgetbctowork.ca/,8:00 am to 5:00 pm,62,12,https://workbc.ca/WorkBC-Centres/Cariboo/Quesnel.aspx
48,Port Moody,601 - 130 Brew Street,,Port Moody,2,V3H 0E3,49.279964,-122.828594,1,1,0,604 917-0286,604 917-0287,info@portmoodyesc.com,http://www.portmoodyesc.com/,"8:30 am to 5:00 pm, Monday to Friday8:30 am to 8:00 pm, Thursdays",64,18,https://workbc.ca/WorkBC-Centres/Cariboo/Quesnel.aspx
49,Burnaby,Metrotower 1Suite 726 - 4710 Kingsway,,Burnaby,2,V5H 4M2,49.226202,-123.001288,1,1,0,604 430-5627,604 434-5648,burnaby@gthiringsolutions.ca,http://www.gthiringsolutions.ca/,"8:30 am to 5:00 pm, Monday to Wednesday8:30 am to 3:00 pm, Thursday8:30 am to 4:30 pm, Friday, Excluding Statutory Holidays",8,6,https://workbc.ca/WorkBC-Centres/Cariboo/Quesnel.aspx
50,Burnaby,600 - 1901 Rosser Avenue,,Burnaby,2,V5C 6S3,49.267032,-123.006264,2,1,0,604 451-4593,604 451-4596,burnaby@gthiringsolutions.ca,http://www.gthiringsolutions.ca/,"8:30 am to 5:00 pm, Monday to Wednesday8:30 am to 3:00 pm, Thursday8:30 am to 4:30 pm, Friday, Excluding Statutory Holidays",9,22,https://workbc.ca/WorkBC-Centres/Cariboo/Quesnel.aspx
51,Burnaby,"7297 KingswayBurnaby, BC",,Burnaby,2,V5E 1G5,49.218379,-122.952918,3,1,0,604-636-1124,604-636-4743,burnaby@gthiringsolutions.ca,http://www.gthiringsolutions.ca/,"8:30 am to 5:00 pm, Monday to Wednesday8:30 am to 3:00 pm, Thursday8:30 am to 4:30 pm, Friday, Excluding Statutory Holidays",7,22,https://workbc.ca/WorkBC-Centres/Cariboo/Quesnel.aspx
52,New Westminster,519 Seventh Street,,New Westminster,2,V3M 6A7,49.210972,-122.920156,1,1,0,604 522-9701,604 522-4792,reception@fraserworks.ca,http://www.fraserworks.ca/,"8:30 am to 4:40 pm, Monday to Friday",54,21,https://workbc.ca/WorkBC-Centres/Cariboo/Quesnel.aspx
53,Surrey Fleetwood/ Guildford,Suite 202 - 10334 152A Street,,Surrey,2,V3R 7P8,49.190097,-122.799511,1,1,0,604 580-9740,604 580-9732,info@surreyfleetwoodguildfordesc.ca,http://www.surreyfleetwoodguildfordesc.ca/,"8:30 am to 4:30 pm, Monday to Friday",84,14,https://workbc.ca/WorkBC-Centres/Cariboo/Quesnel.aspx
54,Surrey Cloverdale,"Suite 101, 5783 – 176A Street",,Surrey,2,V3S 6S6,49.107755,-122.733734,2,1,0,604 576-3118,604 576-3119,cloverdale.esc@sourcesbc.ca,http://www.sourcesbc.ca/,8:30 am to 4:30 pm,83,23,https://workbc.ca/WorkBC-Centres/Cariboo/Quesnel.aspx
55,Surrey Newton,#240 – 7525 King George Boulevard,,Surrey,2,V3W 5A8,49.139547,-122.845855,1,1,0,778 578-4272,778 593-0226,avianewton@aviaemployment.ca,http://www.letsgetbctowork.ca/,8:00 am to 5:00 pm,85,12,https://workbc.ca/WorkBC-Centres/Cariboo/Quesnel.aspx
56,South Surrey,#208 1461 Johnston Road,,White Rock,2,V4B 0A2,49.028589,-122.801263,1,1,0,604 542-7590,604 531-6740,whiterock.esc@sourcesbc.ca,http://www.sourcesbc.ca/,8:30 am to 4:30 pm.,80,23,https://workbc.ca/WorkBC-Centres/Cariboo/Quesnel.aspx
57,Surrey Whalley,13655 104th Avenue,,Surrey,2,V3T 4M4,49.191662,-122.844009,1,1,0,604 584-0003,604 584-0002,contactWESC@options.bc.ca,http://www.whalleyESC.ca/,"8:00 am to 4:00 pm, Monday to Friday",86,24,https://workbc.ca/WorkBC-Centres/Cariboo/Quesnel.aspx
58,Fernie,302C - 2nd Avenue,,Fernie,2,V0B 1M0,49.501412,-115.063221,1,1,0,250 423-4204,250-423-6238,info@evemployment.org,http://www.ekemployment.org/,"9:00 am to 5:00 pm, Monday to Friday Closed on all statutory holidays",26,25,https://workbc.ca/WorkBC-Centres/Cariboo/Quesnel.aspx
59,Cranbrook,24 11th Avenue South,,Cranbrook,2,V1C 2P1,49.511454,-115.766208,1,1,0,250 489-5117,250-489-0663,info@ekemployment.org,http://www.ekemployment.org/,"9:00 am to 5:00 pm, Monday to Thursday8:30 am to 2:30 pm, Friday Closed on weekends and all statutory holidays",19,25,https://workbc.ca/WorkBC-Centres/Cariboo/Quesnel.aspx
60,Golden,#205 - 421 9th Avenue,,Golden,2,V0A 1H2,51.299864,-116.966222,2,1,0,250 344-5413,250 344-2515,gesinfo@ekemployment.org,http://www.ekemployment.org/,9:00 am to 4:30 pmClosed for 1 hour lunch,29,25,https://workbc.ca/WorkBC-Centres/Cariboo/Quesnel.aspx
61,Invermere,"#2 - 1313 7th Avenue, Invermere, BC",,Invermere,2,V0A 1K0,50.503432,-116.027098,3,1,0,250 341-6889,250 341-6886,cvinfo@ekemployment.org,http://www.ekemployment.org/,"9:00 am to 4:00 pm, Monday to Friday Closed 12-1:00 pm Closed all statutory holidays",35,25,https://workbc.ca/WorkBC-Centres/Cariboo/Quesnel.aspx
62,Creston,119 – 11th Avenue North,,Creston,2,V0B 1G0,49.09566,-116.511904,1,1,0,250-428-5655,250-428-5336,kesadmin@kes.bc.ca,http://www.kes.bc.ca/,"8:00 am to 4:00 pm, Monday to Friday",20,25,https://workbc.ca/WorkBC-Centres/Cariboo/Quesnel.aspx
63,Nelson,Suite 203 - 514 Vernon Street,,Nelson,2,V1L 4E7,49.492785,-117.29404,1,1,0,250 352-6200,250 352-6203,info@kcds.ca,http://www.kcds.ca/,8:30 am to 4:30 pm,52,25,https://workbc.ca/WorkBC-Centres/Cariboo/Quesnel.aspx
64,Nelson,"Suite B - 1020 Columbia AvenueCastlegar, BC",,Castlegar,2,V1N 1H2,49.31401,-117.663114,2,1,0,250 365-6515,250 365-6559,info@kcds.ca,http://www.kcds.ca/,8:30 am to 4:30 pm,53,25,https://workbc.ca/WorkBC-Centres/Cariboo/Quesnel.aspx
65,Nakusp,"Suite B - 1020 Columbia AvenueCastlegar, BC",,205 – 6th Avenue NW,2,V0G 1R0,50.241743,-117.804693,1,1,0,250 265-3318,250 265-3378,outreach@aslcs.com,http://www.aslcs.com/,"8:30 am to 4:30 pm, Monday to Friday",49,26,https://workbc.ca/WorkBC-Centres/Cariboo/Quesnel.aspx
66,Trail,#123-1290 Esplanade Avenue,,Trail,2,V1R 4T2,49.09674,-117.7069,1,1,0,250 368-6360,250 368-6360,jobs@communityskillscentre.com,http://www.communityskillscentre.com/,"8:30 am to 4:30 pm, Monday to FridayClosed on Statutory Holidays",89,27,https://workbc.ca/WorkBC-Centres/Cariboo/Quesnel.aspx
67,Grand Forks,1647 Central Avenue,,Grand Forks,2,V0H 1H0,49.029529,-118.455751,1,1,0,250 442-2722,250 442-5311,reception@boundarycf.com,http://www.boundarycf.com/,"8:30am to 4:30 pm, Monday to Friday",30,28,https://workbc.ca/WorkBC-Centres/Cariboo/Quesnel.aspx
68,Oliver,"291 Fairview Road, Unit D&E",,Oliver,2,V0H 1T0,49.18285,-119.54914,1,1,0,250 498-2911,250 498-2944,info@opendoorgroup.org,http://www.opendoorgroup.org/,"8:30 am to 4:30 pm, Monday to Friday",56,16,https://workbc.ca/WorkBC-Centres/Cariboo/Quesnel.aspx
69,Osoyoos,"#4 - 9150 Main Street, RR 2",,Osoyoos,2,V0H 1V2,49.035134,-119.474475,2,1,0,250 495-7731,250 495-7797,info@opendoorgroup.org,http://www.opendoorgroup.org/,"8:30 am to 4:30 pm, Monday to Friday",57,16,https://workbc.ca/WorkBC-Centres/Cariboo/Quesnel.aspx
70,Penticton,50 Calgary Avenue,,Penticton,2,V2A 2T6,49.485831,-119.586881,1,1,0,250-770-5627,250-492-8190,reception@ymcaokanagan.ca,http://www.ymcaworkbc.ca/,"8:00 am to 4:30 pm, Monday, Tuesday & Thursday10:00 am to 4:30 pm, Wednesday8:00 am to 4:00 pm, Friday",59,29,https://workbc.ca/WorkBC-Centres/Cariboo/Quesnel.aspx
71,Penticton,206 Vermillion Avenue,,Princeton,2,V0X 1W0,49.460145,-120.508019,2,1,1,250-770-5627,250-295-4177,reception@ymcaokanagan.ca,http://www.ymcaworkbc.ca/,"8:00 am to 4:30 pm, Monday, Tuesday & Thursday10:00 am to 4:30 pm, Wednesday8:00 am to 4:00 pm, Friday",60,29,https://workbc.ca/WorkBC-Centres/Cariboo/Quesnel.aspx
72,Summerland,103 - 13415 Rosedale Avenue,,Summerland,2,V0H 1Z5,49.603229,-119.677637,3,1,0,1-855-770-5627,250-494-1515,reception@ymcaokanagan.ca,http://www.ymcaworkbc.ca/,"9:00 am to 4:00 pm, Monday to Friday10:00 am to 4:00 pm, Wednesday Closed Noon to 1:00 pm",82,29,https://workbc.ca/WorkBC-Centres/Cariboo/Quesnel.aspx
73,Kelowna,#102 - 1460 Pandosy Street,,Kelowna,2,V1Y 1P3,49.886964,-119.495291,1,1,1,778-478-8390,778-484-5329,info@MaximusWorkbc.ca,http://www.MaximusWorkbc.ca/,"8:00 am to 4:30 pm, 8:00 am to 4:00 pm - Resource Centre",37,30,https://workbc.ca/WorkBC-Centres/Cariboo/Quesnel.aspx
74,West Kelowna,#1 - 2448 Main Street,,West Kelowna,2,V1W 4V3,49.829554,-119.627716,2,1,0,778-754-5890,778-754-5891,info@MaximusWorkbc.ca,http://www.MaximusWorkbc.ca/,"8:30 am to 4:30 pm, Monday to Friday8:00 am to 4:00 pm, Resource CentreOffices/reception desks are open until 4:30 pm Closed on Statutory Holidays",38,30,https://workbc.ca/WorkBC-Centres/Cariboo/Quesnel.aspx
75,Rutland,#103 - 285 Aurora Crescent,,Kelowna,2,V1X 7N6,49.891052,-119.397883,3,1,0,778-753-6045,778-753-6046,info@MaximusWorkbc.ca,http://www.MaximusWorkbc.ca/,"8:30 am to 4:30 pm, Monday to Friday8:00 am to 4:00 pm, Resource CentreOffices/reception desks are open until 4:30 pm Closed on Statutory Holidays",72,30,https://workbc.ca/WorkBC-Centres/Cariboo/Quesnel.aspx
76,Vernon,3105 33rd Street,,Vernon,2,V1T 9P7,50.264628,-119.275119,1,1,0,250-545-2215,250-545-9831,info@futuresbc.com,http://www.futuresbc.com/,8:00 am to 5:00 pm (public access is 9:00 am to 5:00 pm),99,31,https://workbc.ca/WorkBC-Centres/Cariboo/Quesnel.aspx
77,Enderby,#2 - 904 Maud Street,,Enderby,2,V0E 1V0,50.550558,-119.137615,2,1,0,250 838-2324,250 838-0722,enderby@noees.com,http://www.enderbyemployment.ca/,"9:00 am to 4:00 pm, Monday to Friday",25,31,https://workbc.ca/WorkBC-Centres/Cariboo/Quesnel.aspx
78,Salmon Arm,101 – 310 Hudson Avenue NE,,Salmon Arm,2,V1E 1R6,50.702039,-119.281315,1,1,0,250 804-4770,250 804-4771,info@WorkBC-SalmonArm.com,http://www.WorkBC-SalmonArm.com/,"8:30 am to 4:30pm, Monday to Friday",74,32,https://workbc.ca/WorkBC-Centres/Cariboo/Quesnel.aspx
79,Revelstoke,117 Campbell Avenue,,Revelstoke,2,V0E 2S0,50.999902,-118.196569,1,1,0,250 814-0244,250 814-0256,info@WorkBC-Revelstoke.com,http://www.WorkBC-Revelstoke.com/,"8:30 am to 4:30pm, Monday to Friday",70,32,https://workbc.ca/WorkBC-Centres/Cariboo/Quesnel.aspx
80,Clearwater,"Clearwater Plaza, Unit A & B 58A Young Street",,Clearwater,2,V0E 1N2,51.645433,-120.072287,1,1,0,250 674-2928,250-674-2938,info@clearwateremployment.ca,http://www.yellowheadcs.ca/,"8:00 am to 4:00 pm, Monday to Friday",15,33,https://workbc.ca/WorkBC-Centres/Cariboo/Quesnel.aspx
81,Barriere,4629 Barriere Town Road,,Barriere,2,V0E 1E0,51.183071,-120.122648,2,1,0,250 672-0036,250 672-2159,mail@barriere-employment.ca,http://www.yellowheadcs.ca/,"8:00 am to 4:00 pm, Monday to Friday Closed on Statutory Holidays",5,33,https://workbc.ca/WorkBC-Centres/Cariboo/Quesnel.aspx
82,Kamloops,100-275 Lansdowne Street,,Kamloops,2,V2C 1X8,50.676597,-120.334881,1,1,1,250 434-9441,250 343-9442,info@opendoorgroup.org,http://www.opendoorgroup.org/,"8:30 am to 4:30 pm, Monday to Friday",36,16,https://workbc.ca/WorkBC-Centres/Cariboo/Quesnel.aspx
83,Kamloops,795 Tranquille Road,,Kamloops,2,V2B 3J3,50.698721,-120.363384,2,1,0,250 377-3670,250 377-3685,info@opendoorgroup.org,http://www.opendoorgroup.org/,"8:30 am to 4:30 pm, Monday to Friday",36,16,https://workbc.ca/WorkBC-Centres/Cariboo/Quesnel.aspx
84,Chase,822 Shuswap Avenue,,Chase,2,V0E 1M0,50.820294,-119.687648,3,1,0,250 679-8448,250 679-8117,chaseemployment@cablelan.net,http://www.ChaseEmployment.ca/,"9:00 am to 4:30 pm, Monday to Friday9:00 am to 4:15 pm, daily - Computer Lab Closed on Statutory Holidays",12,16,https://workbc.ca/WorkBC-Centres/Cariboo/Quesnel.aspx
85,Ashcroft,124th 4th Street,,Ashcroft,2,V0K 1A0,50.725925,-121.280474,1,1,0,250 453-9421,250 453-9834,ashcroft@hortonventures.com,http://www.hortonventures.com/,8:30 am to 4:30 pm,4,34,https://workbc.ca/WorkBC-Centres/Cariboo/Quesnel.aspx
86,Merritt,2099 Quilchena Avenue,,Merritt,2,V1K 1A4,50.109745,-120.787512,1,1,0,250 378-5151,250 378-5156,info@communityfutures.net,http://www.communityfutures.net/,8:30 am to 4:30 pm,47,35,https://workbc.ca/WorkBC-Centres/Cariboo/Quesnel.aspx
87,Quesnel,Suite 100 488 McLean Street,,Quesnel,2,V2J 2P2,52.980601,-122.495616,1,1,0,250 992-7691,250 992-7692,Reception@ QuesnelEmplymentServices.com,http://www.quesnelemploymentservices.com/,"8:30 am to 4:30 pm, Monday to Friday",69,36,https://workbc.ca/WorkBC-Centres/Cariboo/Quesnel.aspx
88,Williams Lake,281 – 1st Avenue,,NorthWilliams Lake,2,V2G 1Y7,52.13242,-122.146714,1,1,0,250 398-5133,250 398-5103,inquiries@hortonventures.com,http://www.hortonventures.com/,"8:30 am to 5:00 pm, Monday to Friday Closed for lunch 12-1 Tuesday",102,34,https://workbc.ca/WorkBC-Centres/Cariboo/Quesnel.aspx
89,Williams Lake,808 Alpine Avenue 100 Mile House,,Williams Lake,2,V0K 2E0,51.635089,-121.299661,2,1,0,250 398-5121,250 398-5131,employ@hortonventures.com,http://www.hortonventures.com/,"8:30 am to 4:30 pm, Monday to Friday",103,34,https://workbc.ca/WorkBC-Centres/Cariboo/Quesnel.aspx
90,Bella Coola,750 Bentink Avenue,,Bella Coola,2,V0T 1C0,52.372187,-126.759793,3,1,0,250 799-5811,250 799-5818,ls_cc@belco.bc.ca,http://www.hortonventures.com/,"11:00 am to 4:00 pm, Monday to Thursday",6,41,https://workbc.ca/WorkBC-Centres/Cariboo/Quesnel.aspx
91,Valemount,1201 Fifth Avenue,,Valemount,2,V0E 2Z0,52.832069,-119.264481,1,1,0,250-566-4601,250-566-4602,frontdesk@valemountlearningcentre.org,http://www.valemountlearningcentre.org/,"8:30 am to 4:30 pm, Monday to Friday, Closed for weekends and stat holidays",91,37,https://workbc.ca/WorkBC-Centres/Cariboo/Quesnel.aspx
92,McBride,942 Third Avenue,,McBride,2,V0J 2E0,53.302712,-120.167682,2,1,0,250 569-2266,250 569-2200,rvssmcbride@telus.net,http://www.robsonvalleysupportsociety.org/,"8:30 am to 4:30 pm, Monday to Friday",46,38,https://workbc.ca/WorkBC-Centres/Cariboo/Quesnel.aspx
93,Prince George,1511 3rd Avenue,,Prince George,2,V2L 3G3,53.917886,-122.749199,1,1,1,250-596-2517,250-596-2928,pges@pges.ca,http://www.pges.ca/,"8:30 am to 4:30 pm, Monday to Friday",66,39,https://workbc.ca/WorkBC-Centres/Cariboo/Quesnel.aspx
94,Vanderhoof,139 First Street,,East Vanderhoof,2,V0J 3A0,54.013962,-124.009737,1,1,0,250 567-5785,250 567-5784,info@pesl.ca,http://www.pesl.ca/,"8:30 am to 5:00 pm, Monday to Friday",98,40,https://workbc.ca/WorkBC-Centres/Cariboo/Quesnel.aspx
95,Burns Lake,Unit C - 132 Francois Lake Drive,,Burns Lake,2,V0J 1E1,54.233415,-125.763613,2,1,0,250 692-4219,250 692-4237,Halley.Finch@WorkBC-BurnsLake.com,http://www.pesl.ca/,"9:00 am to 4:00 pm, Monday to Friday",10,40,https://workbc.ca/WorkBC-Centres/Cariboo/Quesnel.aspx
96,Smithers,1330 Main Street,,Smithers,2,V0J 2N3,54.781776,-127.166979,1,1,0,250 847-0182,250 847-2657,info@WorkBC-Smithers.com,http://www.WorkBC-Smithers.com/,"8:30 am to 4:30 pm, Monday to Friday 8:30 am to 7:00 pm, Wednesday",78,32,https://workbc.ca/WorkBC-Centres/Cariboo/Quesnel.aspx
97,Houston,"3400 - 11th Street, Bag 2000",,Houston,2,V0J 1Z0,54.397997,-126.648209,2,1,0,250-847-0182,1-877-947-0182,CherylAnn.Stahel@WorkBC-Smithers.com,http://www.WorkBC-Smithers.com/,"8:30 am to 4:30 pm, Monday to Friday, Closed for lunch 12:30-1:30, 9:30 am to 3:30, Thursday, Self Serve on Site",34,32,https://workbc.ca/WorkBC-Centres/Cariboo/Quesnel.aspx
98,The Kitimat Community Services Society,562 Mountainview Square,,Kitimat,2,V8C 2N2,54.050551,-128.650969,1,1,0,250-632-6581,250-632-6561,esc.kcss@telus.net,http://www.kitimatcommunityservices.ca/,"8:30 am to 4:30 pm, Monday to Friday",39,44,https://workbc.ca/WorkBC-Centres/Cariboo/Quesnel.aspx
99,Terrace,201 4622 Greig Avenue,,Terrace,2,V8G 1M9,54.515861,-128.588613,1,1,0,250-638-8108,250-638-7212,workbc-mass@hseds.ca,http://www.usdc.bc.ca/,"8:30 am to 4:30 pm, Monday to Friday",87,45,https://workbc.ca/WorkBC-Centres/Cariboo/Quesnel.aspx
100,Hazelton,4345 Field Street,,Hazelton,2,V0J 1Y0,55.256499,-127.675246,2,1,0,250 842-6110,250 845-2282,esc.kcss@telus.net,http://www.usdc.bc.ca/,"8:30 am to 4:30 pm, Monday to Friday",32,46,https://workbc.ca/WorkBC-Centres/Cariboo/Quesnel.aspx
101,Haida Gwaii,1730 Hodges Street,,Masset,2,V0T 1M0,54.012127,-132.14253,1,1,0,250-626-3236,250-626-3260,workbc-mass@hseds.ca,http://www.hseds.ca/,"8:30 am to 4:30 pm, Monday to Friday",31,47,https://workbc.ca/WorkBC-Centres/Cariboo/Quesnel.aspx
102,Queen Charlotte City,101 Causeway Box 907,,Queen Charlotte City,2,V0T 1S0,53.252783,-132.07115,2,1,0,250 559-0049,250 559-7709,workbc-qcc@hseds.ca,http://www.hseds.ca/,"8:30 am to 4:30 pm, Monday to Friday",68,47,https://workbc.ca/WorkBC-Centres/Cariboo/Quesnel.aspx
103,Prince Rupert,125 Market Place,,Prince Rupert,2,V8J 1B9,54.316919,-130.320802,1,1,0,250-624-9498,250-627-4397,workbc-pr@hseds.ca,http://www.hseds.ca/,"8:30 am to 4:30 pm, Monday to Friday",67,47,https://workbc.ca/WorkBC-Centres/Cariboo/Quesnel.aspx
104,Mackenzie,540 Mackenzie Boulevard,,Mackenzie,2,V0J 2C0,55.340268,-123.09468,1,1,0,250 997-7208,250 997-7219,workbc@cnc.bc.ca,http://www.workbcmackenzie.ca/,8:30 am to 4:30 pm,44,48,https://workbc.ca/WorkBC-Centres/Cariboo/Quesnel.aspx
105,Dawson Creek,1105 – 103 Avenue,,Dawson Creek,2,V1G 2G8,55.758295,-120.232103,1,1,0,250 782-8744,250 782-8018,info@jobsearchonline.bc.ca,http://www.jobsearchonline.bc.ca/,8:30 am to 4:30 pm,21,49,https://workbc.ca/WorkBC-Centres/Cariboo/Quesnel.aspx
106,Fort St. John,"101, 9907-99 Avenue",,Fort St. John,2,V1J 1V1,56.2454,-120.847036,1,1,0,250 787-0024,250 787-0028,MI@pris.ca,http://www.jobsearchonline.bc.ca/,"8:30 am to 4:30 pm, Monday to Friday Closed all Statutory Holidays",28,51,https://workbc.ca/WorkBC-Centres/Cariboo/Quesnel.aspx
107,Fort Nelson,5008 49th Avenue,,Fort Nelson,2,V0C 1R0,58.803266,-122.701397,1,1,0,250 774-3114,250 774-3768,fnemployment@northwestel.net,http://www.fortnelsonemployment.ca/,"ca
8:30 am to 5:00 pm, Monday to Friday Open throughout the lunch hour",27,52,https://workbc.ca/WorkBC-Centres/Cariboo/Quesnel.aspx
